CCSDS_OMM_VERS,COMMENT,CREATION_DATE,ORIGINATOR,OBJECT_NAME,OBJECT_ID,CENTER_NAME,REF_FRAME,TIME_SYSTEM,MEAN_ELEMENT_THEORY,EPOCH,MEAN_MOTION,ECCENTRICITY,INCLINATION,RA_OF_ASC_NODE,ARG_OF_PERICENTER,MEAN_ANOMALY,EPHEMERIS_TYPE,CLASSIFICATION_TYPE,NORAD_CAT_ID,ELEMENT_SET_NO,REV_AT_EPOCH,BSTAR,MEAN_MOTION_DOT,MEAN_MOTION_DDOT,SEMIMAJOR_AXIS,PERIOD,APOAPSIS,PERIAPSIS,OBJECT_TYPE,RCS_SIZE,COUNTRY_CODE,LAUNCH_DATE,SITE,DECAY_DATE,FILE,GP_ID,TLE_LINE0,TLE_LINE1,TLE_LINE2,NORAD_KEY
3.0,GENERATED VIA SPACE-TRACK.ORG API,2026-05-06T14:56:52,18 SPCS,NILESAT 301,2022-061A,EARTH,TEME,UTC,SGP4,2026-05-06T07:58:23.310336,1.00270975,0.0006148,0.0579,27.5177,3.081,306.2181,0,U,52817,999,1431,0.00000000000000,-0.00000050,0.0000000000000,42164.959,1436.109,35812.747,35760.901,PAYLOAD,LARGE,EGYP,2022-06-08,AFETR,,5177403,322302915,0 NILESAT 301,1 52817U 22061A   26126.33221424 -.00000050  00000-0  00000+0 0  9997,2 52817   0.0579  27.5177 0006148   3.0810 306.2181  1.00270975 14317,52817
3.0,GENERATED VIA SPACE-TRACK.ORG API,2026-05-06T14:46:56,18 SPCS,TIBA-1,2019-080A,EARTH,TEME,UTC,SGP4,2026-05-06T11:35:48.975072,1.00272742,0.0002137,0.0579,10.6292,42.4592,20.7005,0,U,44800,999,2364,0.00000000000000,0.00000163,0.0000000000000,42164.464,1436.083,35795.339,35777.318,PAYLOAD,,EGYP,2019-11-26,FRGUI,,5177222,322299643,0 TIBA-1,1 44800U 19080A   26126.48320573  .00000163  00000-0  00000+0 0  9992,2 44800   0.0579  10.6292 0002137  42.4592  20.7005  1.00272742 23642,44800
3.0,GENERATED VIA SPACE-TRACK.ORG API,2026-05-06T14:46:56,18 SPCS,GSAT 30,2020-005A,EARTH,TEME,UTC,SGP4,2026-05-06T11:49:25.169952,1.00272432,0.0003224,0.0585,88.3929,346.8781,49.4413,0,U,45026,999,2309,0.00000000000000,-0.00000157,0.0000000000000,42164.551,1436.088,35800.009,35772.822,PAYLOAD,LARGE,IND,2020-01-16,FRGUI,,5177225,322299180,0 GSAT 30,1 45026U 20005A   26126.49265243 -.00000157  00000-0  00000+0 0  9999,2 45026   0.0585  88.3929 0003224 346.8781  49.4413  1.00272432 23094,45026
3.0,GENERATED VIA SPACE-TRACK.ORG API,2026-05-06T14:46:56,18 SPCS,ARABSAT 5C,2011-049B,EARTH,TEME,UTC,SGP4,2026-05-06T08:06:07.566912,1.00271944,0.0002777,0.0593,21.9763,33.2362,310.5073,0,U,37810,999,5361,0.00000000000000,0.00000131,0.0000000000000,42164.687,1436.095,35798.262,35774.843,PAYLOAD,LARGE,AB,2011-09-21,FRGUI,,5177120,322296312,0 ARABSAT 5C,1 37810U 11049B   26126.33758758  .00000131  00000-0  00000+0 0  9991,2 37810   0.0593  21.9763 0002777  33.2362 310.5073  1.00271944 53610,37810
3.0,GENERATED VIA SPACE-TRACK.ORG API,2026-05-06T14:46:56,18 SPCS,QZS-3,2017-048A,EARTH,TEME,UTC,SGP4,2026-05-06T11:56:17.094048,1.00277464,0.0002232,0.0594,149.3528,257.4357,123.6074,0,U,42917,999,3184,0.00000000000000,-0.00000340,0.0000000000000,42163.14,1436.016,35794.416,35775.594,PAYLOAD,LARGE,JPN,2017-08-19,TNSTA,,5177188,322298221,0 QZS-3,1 42917U 17048A   26126.49742007 -.00000340  00000-0  00000+0 0  9990,2 42917   0.0594 149.3528 0002232 257.4357 123.6074  1.00277464 31847,42917
3.0,GENERATED VIA SPACE-TRACK.ORG API,2026-05-06T14:46:56,18 SPCS,GSAT 11,2018-100B,EARTH,TEME,UTC,SGP4,2026-05-06T11:46:55.411104,1.00271983,0.0007574,0.0595,263.2672,171.809,40.0158,0,U,43824,999,2706,0.00000000000000,-0.00000069,0.0000000000000,42164.676,1436.094,35818.477,35754.606,PAYLOAD,LARGE,IND,2018-12-04,FRGUI,,5177207,322298958,0 GSAT 11,1 43824U 18100B   26126.49091911 -.00000069  00000-0  00000+0 0  9997,2 43824   0.0595 263.2672 0007574 171.8090  40.0158  1.00271983 27063,43824
3.0,GENERATED VIA SPACE-TRACK.ORG API,2026-05-06T14:56:52,18 SPCS,EUTELSAT 10B,2022-157A,EARTH,TEME,UTC,SGP4,2026-05-06T08:36:38.744928,1.00274122,0.0002178,0.0604,94.4136,8.8288,260.1394,0,U,54259,999,1260,0.00000000000000,0.00000077,0.0000000000000,42164.077,1436.063,35795.125,35776.758,PAYLOAD,LARGE,EUTE,2022-11-23,AFETR,,5177450,322304498,0 EUTELSAT 10B,1 54259U 22157A   26126.35878177  .00000077  00000-0  00000+0 0  9998,2 54259   0.0604  94.4136 0002178   8.8288 260.1394  1.00274122 12609,54259
3.0,GENERATED VIA SPACE-TRACK.ORG API,2026-05-06T14:46:56,18 SPCS,BSAT-4B,2020-056A,EARTH,TEME,UTC,SGP4,2026-05-06T11:57:01.939968,1.00272766,0.0003511,0.0607,110.8561,347.3647,55.2334,0,U,46112,999,2097,0.00000000000000,-0.00000342,0.0000000000000,42164.457,1436.083,35801.126,35771.518,PAYLOAD,LARGE,JPN,2020-08-15,FRGUI,,5177246,322299938,0 BSAT-4B,1 46112U 20056A   26126.49793912 -.00000342  00000-0  00000+0 0  9997,2 46112   0.0607 110.8561 0003511 347.3647  55.2334  1.00272766 20976,46112
3.0,GENERATED VIA SPACE-TRACK.ORG API,2026-05-06T14:46:56,18 SPCS,BSAT-3B,2010-056B,EARTH,TEME,UTC,SGP4,2026-05-06T11:57:01.939968,1.00270021,6.38e-05,0.0614,245.0188,251.9159,16.5127,0,U,37207,999,5168,0.00000000000000,-0.00000342,0.0000000000000,42165.226,1436.122,35789.782,35784.401,PAYLOAD,LARGE,JPN,2010-10-28,FRGUI,,5177110,322296681,0 BSAT-3B,1 37207U 10056B   26126.49793912 -.00000342  00000-0  00000+0 0  9991,2 37207   0.0614 245.0188 0000638 251.9159  16.5127  1.00270021 51684,37207
3.0,GENERATED VIA SPACE-TRACK.ORG API,2026-05-06T10:08:52,18 SPCS,EUTE KONNECT VHTS,2022-110A,EARTH,TEME,UTC,SGP4,2026-05-06T02:53:11.571648,1.0026978,0.00029967,0.0614,94.7795,289.4398,245.7902,0,U,53765,999,641,0.00000000000000,0.00000025,0.0000000000000,42165.294,1436.126,35799.795,35774.524,PAYLOAD,LARGE,EUTE,2022-09-07,FRGUI,,5176958,322279532,0 EUTE KONNECT VHTS,1 53765U 22110A   26126.12027282  .00000025  00000-0  00000-0 0  9990,2 53765   0.0614  94.7795 0002997 289.4398 245.7902  1.00269780  6413,53765
3.0,GENERATED VIA SPACE-TRACK.ORG API,2026-05-06T14:46:56,18 SPCS,EUTE KA SAT 9A (KA SAT),2010-069A,EARTH,TEME,UTC,SGP4,2026-05-06T08:36:38.744928,1.00274533,0.0004138,0.0621,4.2788,130.4787,227.64,0,U,37258,999,4358,0.00000000000000,0.00000070,0.0000000000000,42163.962,1436.058,35803.274,35768.379,PAYLOAD,LARGE,EUTE,2010-12-26,TTMTR,,5177110,322296189,0 EUTE KA SAT 9A (KA SAT),1 37258U 10069A   26126.35878177  .00000070  00000-0  00000+0 0  9990,2 37258   0.0621   4.2788 0004138 130.4787 227.6400  1.00274533 43587,37258
3.0,GENERATED VIA SPACE-TRACK.ORG API,2026-05-06T14:46:56,18 SPCS,ASTRA 2E,2013-056A,EARTH,TEME,UTC,SGP4,2026-05-06T11:33:41.680224,1.00272609,0.0002697,0.0625,333.591,57.7707,34.8828,0,U,39285,999,4600,0.00000000000000,0.00000158,0.0000000000000,42164.501,1436.085,35797.738,35774.994,PAYLOAD,LARGE,SES,2013-09-29,TTMTR,,5177350,322297063,0 ASTRA 2E,1 39285U 13056A   26126.48173241  .00000158  00000-0  00000+0 0  9992,2 39285   0.0625 333.5910 0002697  57.7707  34.8828  1.00272609 46003,39285
3.0,GENERATED VIA SPACE-TRACK.ORG API,2026-05-06T14:46:56,18 SPCS,XM-5,2010-053A,EARTH,TEME,UTC,SGP4,2026-05-06T10:52:53.092128,1.00270303,0.0003605,0.0627,272.4288,270.7674,89.1428,0,U,37185,999,5706,0.00000000000000,-0.00000015,0.0000000000000,42165.147,1436.118,35802.213,35771.812,PAYLOAD,LARGE,US,2010-10-14,TTMTR,,5177109,322296171,0 XM-5,1 37185U 10053A   26126.45339227 -.00000015  00000-0  00000+0 0  9991,2 37185   0.0627 272.4288 0003605 270.7674  89.1428  1.00270303 57067,37185
3.0,GENERATED VIA SPACE-TRACK.ORG API,2026-05-06T14:46:56,18 SPCS,SES 2,2011-049A,EARTH,TEME,UTC,SGP4,2026-05-06T11:00:52.327008,1.00271749,0.0003047,0.0638,89.7413,319.5431,253.2621,0,U,37809,999,5354,0.00000000000000,-0.00000188,0.0000000000000,42164.742,1436.097,35799.455,35773.759,PAYLOAD,LARGE,SES,2011-09-21,FRGUI,,5177120,322296811,0 SES 2,1 37809U 11049A   26126.45893897 -.00000188  00000-0  00000+0 0  9999,2 37809   0.0638  89.7413 0003047 319.5431 253.2621  1.00271749 53547,37809
3.0,GENERATED VIA SPACE-TRACK.ORG API,2026-05-06T14:56:52,18 SPCS,HG-01,2024-040A,EARTH,TEME,UTC,SGP4,2026-05-06T08:20:38.853024,1.00277488,0.0004126,0.064,327.0833,68.8399,347.0827,0,U,59069,999,690,0.00000000000000,0.00000164,0.0000000000000,42163.133,1436.015,35802.395,35767.602,PAYLOAD,LARGE,PRC,2024-02-29,XSC,,5177589,322307801,0 HG-01,1 59069U 24040A   26126.34767191  .00000164  00000-0  00000+0 0  9994,2 59069   0.0640 327.0833 0004126  68.8399 347.0827  1.00277488  6906,59069
3.0,GENERATED VIA SPACE-TRACK.ORG API,2026-05-06T14:46:56,18 SPCS,COSMOS 2513,2015-075A,EARTH,TEME,UTC,SGP4,2026-05-06T13:45:05.615424,1.00270904,0.0003639,0.0646,92.923,320.7596,97.2863,0,U,41121,999,3813,0.00000000000000,-0.00000130,0.0000000000000,42164.979,1436.11,35802.188,35771.5,PAYLOAD,LARGE,CIS,2015-12-13,TTMTR,,5177168,322297947,0 COSMOS 2513,1 41121U 15075A   26126.57298166 -.00000130  00000-0  00000+0 0  9992,2 41121   0.0646  92.9230 0003639 320.7596  97.2863  1.00270904 38138,41121
3.0,GENERATED VIA SPACE-TRACK.ORG API,2026-05-06T14:46:56,18 SPCS,THAICOM 6,2014-002A,EARTH,TEME,UTC,SGP4,2026-05-06T13:43:04.804032,1.00272435,0.0004735,0.0648,102.2847,349.6177,56.8183,0,U,39500,999,4504,0.00000000000000,-0.00000114,0.0000000000000,42164.55,1436.088,35806.38,35766.45,PAYLOAD,LARGE,THAI,2014-01-06,AFETR,,5177141,322297611,0 THAICOM 6,1 39500U 14002A   26126.57158338 -.00000114  00000-0  00000+0 0  9997,2 39500   0.0648 102.2847 0004735 349.6177  56.8183  1.00272435 45045,39500
3.0,GENERATED VIA SPACE-TRACK.ORG API,2026-05-06T14:46:56,18 SPCS,ABS 2,2014-006A,EARTH,TEME,UTC,SGP4,2026-05-06T11:10:51.288960,1.00272303,0.000384,0.0648,85.3437,326.3311,55.2968,0,U,39508,999,4486,0.00000000000000,-0.00000078,0.0000000000000,42164.587,1436.089,35802.643,35770.261,PAYLOAD,MEDIUM,ABS,2014-02-06,FRGUI,,5177141,322297612,0 ABS 2,1 39508U 14006A   26126.46587140 -.00000078  00000-0  00000+0 0  9993,2 39508   0.0648  85.3437 0003840 326.3311  55.2968  1.00272303 44864,39508
3.0,GENERATED VIA SPACE-TRACK.ORG API,2026-05-06T10:08:52,18 SPCS,TURKSAT 3A,2008-030B,EARTH,TEME,UTC,SGP4,2026-05-06T04:47:02.325408,1.0027076,0.0005238,0.065,82.5876,321.5537,293.6912,0,U,33056,999,5193,0.00000000000000,0.00000154,0.0000000000000,42165.019,1436.112,35808.97,35764.798,PAYLOAD,LARGE,TURK,2008-06-12,FRGUI,,5176958,322269662,0 TURKSAT 3A,1 33056U 08030B   26126.19933247  .00000154  00000-0  00000-0 0  9993,2 33056   0.0650  82.5876 0005238 321.5537 293.6912  1.00270760 51933,33056
